STARLINK-1083           
1 44939U 20001AB  23146.47714469  .00005659  00000+0  39844-3 0  9995
2 44939  53.0514 217.5490 0001024  88.4589 271.6518 15.06407134186653
STARLINK-1091           
1 44940U 20001AC  23146.48819848  .00001451  00000+0  11629-3 0  9992
2 44940  53.0538 217.5040 0000910  80.9804 279.1287 15.06393106186651
STARLINK-1094           
1 44941U 20001AD  23146.57665532  .00002101  00000+0  15992-3 0  9992
2 44941  53.0524 217.1045 0001023  93.7122 266.3984 15.06392062186673
STARLINK-1096           
1 44942U 20001AE  23146.54459780  .00005566  00000+0  26376-3 0  9992
2 44942  53.0483 200.3572 0003072 192.7627 167.3291 15.20792369186911
STARLINK-1100           
1 44943U 20001AF  23146.47345747  .00005463  00000+0  38534-3 0  9997
2 44943  53.0520 217.5668 0001015  58.6933 301.4155 15.06399653186659
STARLINK-1108           
1 44944U 20001AG  23146.45501518  .00006828  00000+0  47680-3 0  9994
2 44944  53.0521 217.6473 0000962 132.6521 227.4549 15.06403725186652
STARLINK-1109           
1 44945U 20001AH  23146.41816216  .00002985  00000+0  21918-3 0  9991
2 44945  53.0529 217.8160 0001154  84.4561 275.6559 15.06398680186646
STARLINK-1110           
1 44946U 20001AJ  23146.33614648  .00011772  00000+0  31769-3 0  9997
2 44946  53.0146 165.1528 0008532  10.7616 349.3567 15.38214895187330
STARLINK-1116           
1 44947U 20001AK  23146.54521934  .00001270  00000+0  11764-4 0  9992
2 44947  53.0515 191.9716 0001928  44.9190 315.1985 15.76738081187026
STARLINK-1122           
1 44949U 20001AM  23146.46608756  .00006167  00000+0  43255-3 0  9992
2 44949  53.0522 217.6004 0000781  58.7534 301.3532 15.06399503186651
STARLINK-1126           
1 44951U 20001AP  23146.34580705  .00029704  00000+0  64558-3 0  9996
2 44951  53.0186 163.6324 0008136   2.8971 357.2079 15.44087047188648
STARLINK-1117           
1 44952U 20001AQ  23146.58034581  .00004008  00000+0  28784-3 0  9990
2 44952  53.0525 217.0861 0001140  88.7654 271.3465 15.06398756186671
STARLINK-1124           
1 44953U 20001AR  23146.46513485  .00002458  00000+0  18389-3 0  9990
2 44953  53.0526 217.6047 0001109  80.4189 279.6925 15.06395865187943
STARLINK-1066           
1 44954U 20001AS  23146.41263991  .00006969  00000+0  48623-3 0  9995
2 44954  53.0518 197.8369 0000927  89.1713 270.9382 15.06405605186873
STARLINK-1069           
1 44955U 20001AT  23146.35366046  .00003203  00000+0  23381-3 0  9996
2 44955  53.0523 198.1069 0000987  81.7813 278.3288 15.06398165186864
STARLINK-1070           
1 44956U 20001AU  23146.54806567  .00003045  00000+0  22323-3 0  9994
2 44956  53.0523 197.2232 0000872  93.6663 266.4426 15.06399020186958
STARLINK-1074           
1 44957U 20001AV  23146.50752128  .00000913  00000+0  80157-4 0  9995
2 44957  53.0523 197.4058 0001353  50.5323 309.5786 15.06395598186940
STARLINK-1076           
1 44959U 20001AX  23146.52320932  .00001251  00000+0  10285-3 0  9993
2 44959  53.0527 197.3468 0001307  56.8183 303.2931 15.06395539186940
STARLINK-1080           
1 44961U 20001AZ  23146.53058216  .00005094  00000+0  36059-3 0  9996
2 44961  53.0524 197.3096 0000741  78.9485 281.1587 15.06404372186956
STARLINK-1086           
1 44964U 20001BC  23146.56007163  .00002579  00000+0  19198-3 0  9997
2 44964  53.0523 197.1796 0001099  75.6322 284.4789 15.06399192186957
STARLINK-1088           
1 44966U 20001BE  23146.36885806  .00013564  00000+0  74073-3 0  9994
2 44966  53.0523 194.4029 0001021 349.0014  11.0956 15.14612415186976
STARLINK-1089           
1 44967U 20001BF  23146.40525409  .00002930  00000+0  21552-3 0  9999
2 44967  53.0527 197.8776 0000306  94.3487 265.7537 15.06396309186937
STARLINK-1090           
1 44968U 20001BG  23146.46792124  .00003974  00000+0  28551-3 0  9991
2 44968  53.0526 197.5930 0000948  90.9047 269.2051 15.06400942186942
STARLINK-1092           
1 44969U 20001BH  23146.52689429  .00000942  00000+0  82129-4 0  9996
2 44969  53.0525 197.3269 0001213  54.0751 306.0351 15.06394736186940
STARLINK-1093           
1 44970U 20001BJ  23146.43843618  .00001394  00000+0  11246-3 0  9993
2 44970  53.0530 197.7270 0001061  88.6356 271.4754 15.06394511186920
STARLINK-1107           
1 44972U 20001BL  23146.40893637 -.00000336  00000+0 -36936-5 0  9990
2 44972  53.0535 197.8534 0001169 101.4054 258.7066 15.06394656186934
STARLINK-1115           
1 44973U 20001BM  23146.51952838  .00003264  00000+0  23794-3 0  9999
2 44973  53.0529 197.3637 0000996  78.6908 281.4192 15.06397318186949
TJS-5                   
1 44978U 20002A   23146.58416296 -.00000335  00000+0  00000+0 0  9993
2 44978   0.4196  88.4506 0002032 176.4283 296.8394  1.00269316 12498
JILIN-01 KUANFU 01      
1 45016U 20003A   23146.73928679  .00004518  00000+0  26590-3 0  9990
2 45016  97.6234 215.7723 0002415 122.4885 237.6579 15.12142931186483
NUSAT-7 (SOPHIE)        
1 45017U 20003B   23146.74555033  .00032967  00000+0  54043-3 0  9995
2 45017  97.1602 208.1938 0009143 181.2476 178.8756 15.52349163188098
NUSAT-8 (MARIE)         
1 45018U 20003C   23146.69934938  .00059207  00000+0  67942-3 0  9993
2 45018  97.1727 212.8265 0007829 179.6453 180.4812 15.61853675188288
TIANQI-5                
1 45019U 20003D   23146.76784144  .00015222  00000+0  36876-3 0  9995
2 45019  97.1679 204.0781 0009163 209.4160 150.6573 15.41131789187769
YINHE-1                 
1 45024U 20004A   23146.74130605  .00000807  00000+0  11312-3 0  9998
2 45024  86.3959 256.4367 0012157 314.3213  45.7008 14.76112782180926
GSAT-30                 
1 45026U 20005A   23146.15701218 -.00000158  00000+0  00000+0 0  9998
2 45026   0.0902  97.9932 0003434 341.8935 303.0846  1.00270374 12298
EUTELSAT KONNECT        
1 45027U 20005B   23146.35695744  .00000056  00000+0  00000+0 0  9993
2 45027   0.0547 100.8435 0000273 166.9721 111.5618  1.00272037 13112
STARLINK-1132           
1 45044U 20006A   23146.29467812  .00002138  00000+0  16237-3 0  9995
2 45044  53.0542 158.3738 0000794 106.7195 253.3882 15.06398640183243
STARLINK-1120           
1 45045U 20006B   23146.34718284  .00004206  00000+0  30108-3 0  9995
2 45045  53.0526 178.1246 0001020  91.7998 268.3108 15.06402849182970
STARLINK-1131           
1 45047U 20006D   23146.48450291 -.00000172  00000+0  73202-5 0  9996
2 45047  53.0529 177.5203 0001331  65.4170 294.6957 15.06398134183332
STARLINK-1134           
1 45048U 20006E   23146.49187707  .00003975  00000+0  28553-3 0  9997
2 45048  53.0521 177.4875 0000960  94.7530 265.3568 15.06403160182991
STARLINK-1135           
1 45049U 20006F   23146.31089206  .00006394  00000+0  28688-3 0  9991
2 45049  53.0731 155.5559 0002142 222.0910 137.9922 15.22429731183295
STARLINK-1140           
1 45050U 20006G   23146.50293541  .00001116  00000+0  93785-4 0  9991
2 45050  53.0527 177.4321 0000969  92.6461 267.4638 15.06392207183334
STARLINK-1148           
1 45052U 20006J   23146.31127083  .00002484  00000+0  18564-3 0  9999
2 45052  53.0523 178.2978 0001040  78.5882 281.5223 15.06394405182967
STARLINK-1155           
1 45053U 20006K   23146.37203485  .00010280  00000+0  33973-3 0  9991
2 45053  52.9883 132.2012 0002853 257.7184 102.3496 15.31965948183566
STARLINK-1156           
1 45054U 20006L   23146.37392861  .00003842  00000+0  27670-3 0  9992
2 45054  53.0526 178.0119 0001116  63.8127 296.2977 15.06397965182974
STARLINK-1159           
1 45057U 20006P   23146.32232701  .00002161  00000+0  16394-3 0  9990
2 45057  53.0528 178.2469 0001153  83.0599 277.0521 15.06394655182972
STARLINK-1162           
1 45058U 20006Q   23146.31495485  .00002613  00000+0  19427-3 0  9992
2 45058  53.0529 178.2772 0001049  90.1038 270.0071 15.06395348182975
STARLINK-1165           
1 45059U 20006R   23146.46976037  .00002230  00000+0  16857-3 0  9995
2 45059  53.0531 177.5851 0000937  88.9106 271.1990 15.06397617183339
STARLINK-1166           
1 45060U 20006S   23146.46607873  .00003090  00000+0  22626-3 0  9992
2 45060  53.0532 177.5999 0001061  85.2533 274.8577 15.06397586182995
STARLINK-1169           
1 45061U 20006T   23146.47344598  .00001034  00000+0  88302-4 0  9996
2 45061  53.0531 177.5680 0001081  95.4880 264.6233 15.06394876183336
STARLINK-1171           
1 45062U 20006U   23146.39236133  .00002440  00000+0  18266-3 0  9996
2 45062  53.0539 177.9304 0001143  79.3394 280.7724 15.06391770182986
STARLINK-1133           
1 45064U 20006W   23146.40525481  .00001010  00000+0  86699-4 0  9995
2 45064  53.0527 157.8710 0001329  72.1667 287.9467 15.06400558183263
STARLINK-1139           
1 45065U 20006X   23146.29337479  .00005080  00000+0  33596-3 0  9999
2 45065  53.0523 157.8564 0003881  29.6347 330.4862 15.08956799183251
STARLINK-1145           
1 45066U 20006Y   23146.44948911  .00002481  00000+0  18539-3 0  9998
2 45066  53.0530 157.6725 0001045  86.2401 273.8708 15.06399792183269
STARLINK-1150           
1 45067U 20006Z   23146.46423227  .00002048  00000+0  15633-3 0  9990
2 45067  53.0530 157.6067 0001202  85.3258 274.7868 15.06399164183275
STARLINK-1161           
1 45068U 20006AA  23146.43747180  .00000737  00000+0  68370-4 0  9995
2 45068  53.0539 157.5914 0001034  89.8149 270.2959 15.06403380183263
STARLINK-1167           
1 45071U 20006AD  23146.43105714  .00003386  00000+0  24608-3 0  9998
2 45071  53.0536 157.7612 0000880  85.1078 275.0012 15.06403750183263
STARLINK-1168           
1 45072U 20006AE  23146.43474319  .00003067  00000+0  22471-3 0  9991
2 45072  53.0528 157.7371 0001081 102.3094 257.8016 15.06401929183269
STARLINK-1170           
1 45073U 20006AF  23146.26150565  .00002061  00000+0  15722-3 0  9991
2 45073  53.0536 158.5221 0001191  99.5842 260.5281 15.06398744183234
STARLINK-1172           
1 45074U 20006AG  23146.31310945  .00002870  00000+0  21145-3 0  9992
2 45074  53.0530 158.2827 0001062  79.2042 280.9067 15.06401516183243
